{"type": "FeatureCollection", "features": [{"type": "Feature", "properties": {"area_ID": 62, "area": "Rajakyl\u00e4-Kuivasranta"}, "geometry": {"type": "Polygon", "coordinates": [[[25.43729098, 65.06561785], [25.43505942, 65.06434179], [25.43630695, 65.06200736], [25.43640548, 65.06169454], [25.43675505, 65.06117727], [25.43677436, 65.06105107], [25.43739872, 65.05903357], [25.43629506, 65.05899682], [25.43611649, 65.05897921], [25.43238302, 65.05882834], [25.43046155, 65.0586573], [25.42766906, 65.05739757], [25.42656362, 65.05677031], [25.41743083, 65.05561411], [25.41666456, 65.05553143], [25.41585838, 65.05542029], [25.41171862, 65.05472538], [25.41092052, 65.05457385], [25.4091477, 65.0549426], [25.40757652, 65.05519925], [25.40616524, 65.05535411], [25.40529829, 65.05544923], [25.4008548, 65.05555648], [25.40051193, 65.05567411], [25.39903044, 65.05615936], [25.39832131, 65.05638089], [25.39802822, 65.05647246], [25.39752196, 65.05662363], [25.39701126, 65.0567693], [25.39649504, 65.05690739], [25.39597197, 65.05703509], [25.39544049, 65.05714879], [25.39489885, 65.05724383], [25.39433398, 65.05731886], [25.39338636, 65.05741892], [25.3932194, 65.05743654], [25.39269992, 65.05750025], [25.39223069, 65.05758183], [25.39183629, 65.05769381], [25.39156808, 65.05782629], [25.39136796, 65.05798539], [25.3912262, 65.05816409], [25.39113743, 65.05835661], [25.39110046, 65.05855809], [25.3911182, 65.0587644], [25.39119777, 65.05897183], [25.39136681, 65.05920214], [25.39160319, 65.05942984], [25.39188815, 65.05965523], [25.39197125, 65.05971329], [25.39220777, 65.05987854], [25.39255201, 65.06009989], [25.39291389, 65.06031926], [25.39367431, 65.06075097], [25.39406936, 65.06096213], [25.3944144, 65.06113812], [25.39447454, 65.0611688], [25.39489181, 65.06136939], [25.39532456, 65.0615617], [25.39577771, 65.0617428], [25.39625785, 65.06190881], [25.39675402, 65.06205258], [25.39727231, 65.06218306], [25.39865262, 65.06249265], [25.39885971, 65.06253909], [25.39936508, 65.0626588], [25.3998376, 65.0627854], [25.40026035, 65.06292331], [25.40061184, 65.06307769], [25.40084833, 65.06323269], [25.40101196, 65.0634], [25.40110369, 65.06357445], [25.40111965, 65.0637513], [25.4010509, 65.06392599], [25.40085509, 65.06412298], [25.40056048, 65.06431289], [25.40019517, 65.06449745], [25.39978036, 65.06467813], [25.39969969, 65.06471016], [25.39933197, 65.06485614], [25.39886193, 65.06503251], [25.39740367, 65.06556152], [25.39692204, 65.06574138], [25.39645188, 65.06592529], [25.39599937, 65.06611516], [25.39564682, 65.06627866], [25.39557188, 65.06631341], [25.39519395, 65.06651162], [25.39483938, 65.06671762], [25.39450227, 65.06692938], [25.39432223, 65.06704927], [25.394178, 65.06714531], [25.39355473, 65.06758528], [25.39265236, 65.06825542], [25.39147368, 65.06915592], [25.39089663, 65.0696087], [25.39034027, 65.07006516], [25.39029444, 65.07010517], [25.39007614, 65.07029577], [25.38982658, 65.07052875], [25.3896005, 65.07075905], [25.38943529, 65.07094167], [25.38939018, 65.07099152], [25.38919366, 65.07122544], [25.38901034, 65.07146019], [25.38884104, 65.07169521], [25.38869105, 65.07192541], [25.38868807, 65.07192998], [25.38855545, 65.07216396], [25.38844916, 65.07239656], [25.38837755, 65.07262711], [25.38835175, 65.07285479], [25.38838626, 65.07307863], [25.38850018, 65.07331251], [25.38867018, 65.07354345], [25.38879027, 65.07368535], [25.38906253, 65.07400701], [25.38923052, 65.07424508], [25.38934669, 65.07448284], [25.38942229, 65.0747265], [25.38946708, 65.07497456], [25.3894887, 65.07522585], [25.38949302, 65.07547947], [25.3894845, 65.07573158], [25.38948439, 65.07573472], [25.38943967, 65.07624815], [25.38936753, 65.0767631], [25.38927522, 65.07723577], [25.38926709, 65.07727742], [25.38920222, 65.07753369], [25.38912344, 65.07778896], [25.3890261, 65.07804283], [25.38890425, 65.07829921], [25.38876357, 65.07855412], [25.38860919, 65.07880796], [25.38843384, 65.079068], [25.38809826, 65.07956562], [25.38609773, 65.08233327], [25.38521491, 65.08359509], [25.38488195, 65.08410187], [25.38457333, 65.08461047], [25.38443275, 65.08486557], [25.38408351, 65.08555884], [25.38407792, 65.08556994], [25.38394959, 65.08580147], [25.3838037, 65.0860294], [25.38363097, 65.08625213], [25.383443, 65.08644884], [25.38322479, 65.08663904], [25.38297581, 65.08682177], [25.38269386, 65.08699566], [25.38230559, 65.08719371], [25.38187819, 65.08738036], [25.38142407, 65.08755911], [25.38008361, 65.0880453], [25.3795294, 65.0882463], [25.37908015, 65.08842216], [25.37866157, 65.08860445], [25.37828827, 65.08879636], [25.37797891, 65.08900184], [25.37775431, 65.08921774], [25.37759346, 65.08944668], [25.37748212, 65.08968511], [25.37741044, 65.08993022], [25.37737239, 65.09017982], [25.37736538, 65.09043215], [25.37739004, 65.09068578], [25.37745017, 65.09093948], [25.37754945, 65.09119294], [25.37767987, 65.09144547], [25.377797, 65.09163847], [25.37783265, 65.09169721], [25.37800124, 65.09194832], [25.37818081, 65.0921989], [25.37855988, 65.09269891], [25.37915122, 65.09344726], [25.37957465, 65.09397398], [25.38075429, 65.09544125], [25.38133485, 65.09618805], [25.38168123, 65.09668304], [25.38182819, 65.09692855], [25.38183575, 65.09694402], [25.381947, 65.09717187], [25.38202604, 65.09741202], [25.38204986, 65.09764774], [25.38199816, 65.09787731], [25.38185142, 65.0981025], [25.38162547, 65.09832059], [25.38133954, 65.09853246], [25.38100739, 65.0987384], [25.38063825, 65.09893814], [25.38023746, 65.0991308], [25.37980701, 65.09931487], [25.37939424, 65.09947263], [25.37896504, 65.09962465], [25.37892584, 65.09963795], [25.37764619, 65.10007204], [25.37721561, 65.10022637], [25.37677116, 65.10039729], [25.37633918, 65.10057416], [25.3755016, 65.10094018], [25.37347063, 65.10188299], [25.37329527, 65.10196244], [25.37264859, 65.10225543], [25.37222745, 65.10243707], [25.37179556, 65.10261386], [25.37135155, 65.10278426], [25.37063149, 65.10304099], [25.37043351, 65.10311157], [25.36959898, 65.10339161], [25.37007796, 65.10371451], [25.37140302, 65.10466855], [25.37389589, 65.10582012], [25.37905606, 65.10602137], [25.38156081, 65.10619335], [25.38233171, 65.10609611], [25.38327511, 65.10605142], [25.38445235, 65.10585158], [25.38594648, 65.10574034], [25.38989692, 65.10640316], [25.39146713, 65.10674242], [25.3916276, 65.10680339], [25.39178801, 65.10680021], [25.39381722, 65.1066618], [25.39633232, 65.10677617], [25.39646693, 65.10677315], [25.39691326, 65.10700208], [25.40125627, 65.10667206], [25.40290752, 65.10581675], [25.40406506, 65.1061422], [25.40458159, 65.10644941], [25.40714712, 65.10722256], [25.40759562, 65.10798715], [25.40825035, 65.10884756], [25.40827258, 65.10889712], [25.41336058, 65.10958788], [25.4136218, 65.10950567], [25.41668742, 65.10865636], [25.41774978, 65.10845462], [25.41841437, 65.10834584], [25.418939, 65.10828059], [25.41945015, 65.10815921], [25.42898117, 65.10252343], [25.43685592, 65.09766453], [25.46285019, 65.09715963], [25.47598533, 65.09389331], [25.48873297, 65.09176858], [25.50748178, 65.09088202], [25.52055528, 65.09429302], [25.5209551, 65.09439878], [25.52169607, 65.09460208], [25.52226421, 65.0951122], [25.52259656, 65.09536534], [25.52842271, 65.10004643], [25.54415837, 65.11131821], [25.58743413, 65.10768393], [25.59172758, 65.10735164], [25.60236352, 65.10553747], [25.60631971, 65.1045016], [25.60860105, 65.10387064], [25.59694071, 65.08254827], [25.59648383, 65.0823898], [25.58488583, 65.07861691], [25.5803419, 65.07713822], [25.57813141, 65.07641876], [25.57170781, 65.07432766], [25.55400717, 65.06750298], [25.53286298, 65.05772533], [25.5238698, 65.05768142], [25.51680189, 65.05679214], [25.51478469, 65.05795331], [25.51382866, 65.05870159], [25.51258126, 65.0600236], [25.51206223, 65.06075278], [25.5081452, 65.06249576], [25.49854674, 65.06470075], [25.49851235, 65.06470739], [25.4983585, 65.06472235], [25.49684021, 65.06474811], [25.4960462, 65.0649018], [25.49518302, 65.06499135], [25.49450438, 65.06514197], [25.49364711, 65.06508806], [25.49351781, 65.06510863], [25.49291259, 65.06511955], [25.49158142, 65.06531566], [25.48955443, 65.06541372], [25.48798836, 65.06534718], [25.48537628, 65.06539901], [25.48442816, 65.06541037], [25.4827495, 65.06554044], [25.47991879, 65.06645513], [25.47862303, 65.06682389], [25.47740092, 65.06730429], [25.47425497, 65.06753667], [25.47354881, 65.0677011], [25.47234608, 65.06780499], [25.46913014, 65.06784837], [25.46858223, 65.06792049], [25.46554202, 65.06733232], [25.45915271, 65.06566654], [25.45812018, 65.06535955], [25.45641768, 65.0647164], [25.45278461, 65.06469389], [25.45127804, 65.06466602], [25.44997491, 65.06462491], [25.44713816, 65.06496457], [25.44509748, 65.06547856], [25.44333078, 65.06589378], [25.44251404, 65.06607465], [25.43729098, 65.06561785]]]}}, {"type": "Feature", "properties": {"area_ID": 63, "area": "Pyyk\u00f6sj\u00e4rvi"}, "geometry": {"type": "Polygon", "coordinates": [[[25.48468609, 65.03644719], [25.47203526, 65.04091456], [25.4692092, 65.04237959], [25.4679474, 65.04302675], [25.46756688, 65.04322191], [25.46729259, 65.04336258], [25.46707779, 65.04344987], [25.46641386, 65.04371966], [25.46603594, 65.04384488], [25.46540884, 65.04405266], [25.46530856, 65.04492882], [25.46502486, 65.04573685], [25.46126904, 65.04821425], [25.4574824, 65.05115814], [25.45447805, 65.05278696], [25.45270263, 65.05507582], [25.44862672, 65.0552221], [25.44520229, 65.05537884], [25.44324055, 65.05660918], [25.44175979, 65.05747486], [25.44170905, 65.05748709], [25.44023016, 65.05739348], [25.43792618, 65.05753905], [25.43739872, 65.05903357], [25.43677436, 65.06105107], [25.43675505, 65.06117727], [25.43640548, 65.06169454], [25.43630695, 65.06200736], [25.43505942, 65.06434179], [25.43729098, 65.06561785], [25.44251404, 65.06607465], [25.44333078, 65.06589378], [25.44509748, 65.06547856], [25.44713816, 65.06496457], [25.44997491, 65.06462491], [25.45127804, 65.06466602], [25.45278461, 65.06469389], [25.45641768, 65.0647164], [25.45812018, 65.06535955], [25.45915271, 65.06566654], [25.46554202, 65.06733232], [25.46858223, 65.06792049], [25.46913014, 65.06784837], [25.47234608, 65.06780499], [25.47354881, 65.0677011], [25.47425497, 65.06753667], [25.47740092, 65.06730429], [25.47862303, 65.06682389], [25.47991879, 65.06645513], [25.4827495, 65.06554044], [25.48442816, 65.06541037], [25.48537628, 65.06539901], [25.48798836, 65.06534718], [25.48955443, 65.06541372], [25.49158142, 65.06531566], [25.49291259, 65.06511955], [25.49351781, 65.06510863], [25.49364711, 65.06508806], [25.49450438, 65.06514197], [25.49518302, 65.06499135], [25.4960462, 65.0649018], [25.49684021, 65.06474811], [25.4983585, 65.06472235], [25.49851235, 65.06470739], [25.49854674, 65.06470075], [25.5081452, 65.06249576], [25.51206223, 65.06075278], [25.51258126, 65.0600236], [25.51382866, 65.05870159], [25.51478469, 65.05795331], [25.51680189, 65.05679214], [25.5238698, 65.05768142], [25.53286298, 65.05772533], [25.55400717, 65.06750298], [25.57170781, 65.07432766], [25.57813141, 65.07641876], [25.5803419, 65.07713822], [25.58488583, 65.07861691], [25.59648383, 65.0823898], [25.59694071, 65.08254827], [25.59694872, 65.08254099], [25.59698318, 65.08250966], [25.59702719, 65.08246966], [25.61612192, 65.06491467], [25.61611928, 65.06491188], [25.61611928, 65.06491174], [25.61894893, 65.06316465], [25.61997318, 65.06155984], [25.62275547, 65.05979771], [25.62171488, 65.05932938], [25.58493512, 65.04762409], [25.5797126, 65.04606525], [25.57633735, 65.0450576], [25.5677031, 65.04247922], [25.56057429, 65.04007311], [25.55757943, 65.03940455], [25.55560408, 65.03944504], [25.55400537, 65.04033769], [25.55137322, 65.03949344], [25.55126222, 65.03742409], [25.55017022, 65.03713283], [25.54935996, 65.0369167], [25.54853566, 65.03663582], [25.54439617, 65.0352251], [25.54095948, 65.03406473], [25.53742024, 65.03304203], [25.53430261, 65.03206962], [25.53285504, 65.03155725], [25.53058406, 65.03079377], [25.52937807, 65.03045558], [25.52925964, 65.03045531], [25.52825961, 65.03010074], [25.52627064, 65.02943661], [25.52204532, 65.02850278], [25.51608512, 65.02780987], [25.50831998, 65.02694567], [25.50665606, 65.02687454], [25.50170365, 65.0290509], [25.49925613, 65.03054015], [25.4927508, 65.03277113], [25.48468609, 65.03644719]]]}}, {"type": "Feature", "properties": {"area_ID": 64, "area": "Pohjois-Oulu"}, "geometry": {"type": "MultiPolygon", "coordinates": [[[[25.50665606, 65.02687454], [25.50831998, 65.02694567], [25.50866056, 65.02455683], [25.50847763, 65.02252612], [25.49978585, 65.02278197], [25.49573895, 65.02234921], [25.49134426, 65.02200437], [25.48672017, 65.02224362], [25.48643928, 65.02225556], [25.48569097, 65.02218196], [25.48538362, 65.02214902], [25.48474451, 65.02208052], [25.48401241, 65.02200205], [25.48327046, 65.02188529], [25.48273081, 65.02177359], [25.48116972, 65.02144773], [25.48109153, 65.0214289], [25.48056179, 65.0213013], [25.47957722, 65.02106414], [25.4791012, 65.02094947], [25.47868945, 65.02085029], [25.4783004, 65.02080068], [25.477729, 65.02066501], [25.47746963, 65.02055643], [25.4774273, 65.02054624], [25.47743797, 65.02065652], [25.47738298, 65.02088182], [25.47726486, 65.02109942], [25.47709151, 65.02130336], [25.47686533, 65.02148638], [25.47658339, 65.02163943], [25.47623734, 65.02175106], [25.47582135, 65.02181212], [25.47534815, 65.02183241], [25.47483318, 65.02182373], [25.47428792, 65.02179556], [25.47254128, 65.02166682], [25.47193357, 65.02162833], [25.47131926, 65.02159606], [25.47070109, 65.0215698], [25.47008117, 65.02154977], [25.46946113, 65.02153664], [25.4688424, 65.02153171], [25.46822635, 65.02153697], [25.46761443, 65.0215553], [25.46703319, 65.02158739], [25.46645688, 65.02163148], [25.4658854, 65.02168491], [25.46531914, 65.02174579], [25.46475901, 65.02181297], [25.46456414, 65.02183871], [25.46420656, 65.02188595], [25.46366413, 65.02196486], [25.463135, 65.02205048], [25.46262367, 65.02214431], [25.4621361, 65.02224862], [25.46168006, 65.0223666], [25.46126549, 65.02250249], [25.46099164, 65.02261573], [25.46073436, 65.02273782], [25.45930806, 65.02344829], [25.45806168, 65.0240424], [25.45720883, 65.02443789], [25.45634355, 65.02483049], [25.45546463, 65.02521786], [25.45501816, 65.02540845], [25.45410354, 65.02577971], [25.45363955, 65.02595569], [25.45268993, 65.0262976], [25.45132866, 65.02677084], [25.45028262, 65.02713447], [25.44934779, 65.02747848], [25.44889823, 65.02765677], [25.44846726, 65.02784157], [25.44806178, 65.02803526], [25.44768022, 65.02824411], [25.4473269, 65.02846234], [25.44699649, 65.02868763], [25.44668557, 65.02891819], [25.44639238, 65.02915262], [25.44611651, 65.0293898], [25.44544212, 65.02999868], [25.4451966, 65.03019139], [25.44507411, 65.03027259], [25.44492201, 65.0303734], [25.44463511, 65.03052826], [25.44431615, 65.03067033], [25.44396739, 65.03079885], [25.44358953, 65.03091229], [25.44309576, 65.03102795], [25.44256992, 65.03112494], [25.44202108, 65.03120851], [25.4414563, 65.03128285], [25.43913646, 65.03154873], [25.43856083, 65.03162028], [25.43799462, 65.0316994], [25.43744254, 65.03178965], [25.43691033, 65.03189544], [25.43640251, 65.03202028], [25.43591493, 65.03216092], [25.4354423, 65.03231324], [25.43498058, 65.03247409], [25.43407828, 65.03281239], [25.43319201, 65.03316314], [25.4323144, 65.03351988], [25.43144467, 65.03388019], [25.43058867, 65.03424472], [25.42976112, 65.03461728], [25.42936617, 65.03480888], [25.42899043, 65.03500592], [25.42864089, 65.03521041], [25.42831993, 65.03542632], [25.42802568, 65.03564986], [25.42775101, 65.03587898], [25.42749047, 65.03611215], [25.42699673, 65.03658632], [25.42629265, 65.03730773], [25.42561652, 65.03803496], [25.42519011, 65.03852289], [25.42499015, 65.03876825], [25.42480353, 65.03901492], [25.42463499, 65.03926328], [25.42449061, 65.03951379], [25.42437693, 65.03976151], [25.42428419, 65.04001062], [25.42404959, 65.04075329], [25.42395953, 65.04099398], [25.42384867, 65.04122762], [25.42370569, 65.0414511], [25.42351657, 65.04166038], [25.4232638, 65.04185032], [25.42292688, 65.04201926], [25.42252347, 65.04216666], [25.42207101, 65.04229623], [25.42158311, 65.04241026], [25.42107042, 65.04250977], [25.42054147, 65.04259467], [25.41896886, 65.04279992], [25.41848929, 65.04288369], [25.41805826, 65.04299296], [25.417682, 65.04313976], [25.41735918, 65.04331652], [25.41707568, 65.04351547], [25.41682049, 65.04373057], [25.41658501, 65.04395715], [25.41636246, 65.04419165], [25.4163591, 65.04419545], [25.41497366, 65.04593424], [25.41422707, 65.04625411], [25.41413077, 65.04631996], [25.4137913, 65.04653601], [25.41307745, 65.04695991], [25.41233737, 65.04737746], [25.41083958, 65.04820753], [25.41010783, 65.04862608], [25.40975396, 65.048838], [25.40941274, 65.04905274], [25.40908904, 65.04927141], [25.40878916, 65.04949542], [25.40852387, 65.04972078], [25.40828155, 65.04995131], [25.40805627, 65.05018568], [25.40784349, 65.05042288], [25.40744217, 65.0509028], [25.40628969, 65.05235504], [25.40587785, 65.05283313], [25.40565541, 65.05306842], [25.40551609, 65.05320303], [25.40541597, 65.05329977], [25.40515325, 65.05352569], [25.40489157, 65.0537236], [25.40460841, 65.05391617], [25.40430642, 65.05410371], [25.40398694, 65.05428616], [25.40365006, 65.05446309], [25.40329465, 65.05463369], [25.40286579, 65.05481976], [25.40241696, 65.0549986], [25.40213227, 65.05510527], [25.40195363, 65.0551722], [25.40147987, 65.05534202], [25.4008548, 65.05555648], [25.40529829, 65.05544923], [25.40616524, 65.05535411], [25.40757652, 65.05519925], [25.4091477, 65.0549426], [25.41092052, 65.05457385], [25.41171862, 65.05472538], [25.41585838, 65.05542029], [25.41666456, 65.05553143], [25.41743083, 65.05561411], [25.42656362, 65.05677031], [25.42766906, 65.05739757], [25.43046155, 65.0586573], [25.43238302, 65.05882834], [25.43611649, 65.05897921], [25.43629506, 65.05899682], [25.43739872, 65.05903357], [25.43792618, 65.05753905], [25.44023016, 65.05739348], [25.44170905, 65.05748709], [25.44175979, 65.05747486], [25.44324055, 65.05660918], [25.44520229, 65.05537884], [25.44862672, 65.0552221], [25.45270263, 65.05507582], [25.45447805, 65.05278696], [25.4574824, 65.05115814], [25.46126904, 65.04821425], [25.46502486, 65.04573685], [25.46530856, 65.04492882], [25.46540884, 65.04405266], [25.46603594, 65.04384488], [25.46641386, 65.04371966], [25.46707779, 65.04344987], [25.46729259, 65.04336258], [25.46756688, 65.04322191], [25.4679474, 65.04302675], [25.4692092, 65.04237959], [25.47203526, 65.04091456], [25.48468609, 65.03644719], [25.4927508, 65.03277113], [25.49925613, 65.03054015], [25.50170365, 65.0290509], [25.50665606, 65.02687454]]], [[[25.44123862, 65.02880479], [25.44157964, 65.03023867], [25.4416868, 65.03029613], [25.44200121, 65.03022452], [25.44200724, 65.03022314], [25.44243522, 65.03010053], [25.44280342, 65.02995695], [25.44311713, 65.02977411], [25.44335791, 65.02956687], [25.44354025, 65.0293417], [25.44367313, 65.02910351], [25.4437605, 65.02885604], [25.44380143, 65.02860206], [25.44379431, 65.02834589], [25.44374937, 65.02808674], [25.44367691, 65.02782563], [25.44358417, 65.02756231], [25.44346242, 65.0272677], [25.44314846, 65.02659191], [25.44310714, 65.02650973], [25.44123862, 65.02880479]]]]}}, {"type": "Feature", "properties": {"area_ID": 66, "area": "Oulun lentoasema"}, "geometry": {"type": "Polygon", "coordinates": [[[25.3680148, 64.96706798], [25.36115013, 64.96683937], [25.34910451, 64.96682673], [25.31587837, 64.95414453], [25.29671706, 64.95095999], [25.21907111, 64.96319273], [25.21179579, 64.96459483], [25.20748227, 64.96441954], [25.20770669, 64.96417688], [25.20790539, 64.96393081], [25.20807064, 64.96368404], [25.20821076, 64.96343395], [25.20833245, 64.96318141], [25.20842399, 64.96296662], [25.20844083, 64.96292711], [25.20871941, 64.96215806], [25.20904348, 64.96112687], [25.2092193, 64.96050683], [25.20926321, 64.96035198], [25.20938765, 64.95983455], [25.20943799, 64.95957541], [25.2094774, 64.95931909], [25.20953349, 64.95880567], [25.20961037, 64.95777826], [25.20965981, 64.9572663], [25.2096826, 64.95712818], [25.20974365, 64.95675808], [25.20980923, 64.9565065], [25.20989909, 64.95625752], [25.21002205, 64.95601209], [25.21019069, 64.95576386], [25.21039447, 64.95551944], [25.21062422, 64.9552779], [25.21076321, 64.95514429], [25.21087318, 64.95503856], [25.21113654, 64.95480101], [25.21169512, 64.95433057], [25.21224604, 64.95390163], [25.2122902, 64.95386725], [25.21260352, 64.95363937], [25.2129308, 64.9534151], [25.21316048, 64.95326812], [25.21327525, 64.95319467], [25.21400029, 64.9527635], [25.21410194, 64.9527063], [25.21643472, 64.95142524], [25.21874724, 64.95015514], [25.218967, 64.95003267], [25.21969228, 64.94960386], [25.2200369, 64.94938532], [25.22036324, 64.94916259], [25.2206647, 64.94893419], [25.22092824, 64.94870608], [25.2211683, 64.94847263], [25.22139113, 64.94823526], [25.22180375, 64.94775313], [25.22258924, 64.94678255], [25.2227945, 64.94654353], [25.22281387, 64.94652243], [25.22301054, 64.94630828], [25.22324258, 64.94607856], [25.22349738, 64.94585666], [25.2237837, 64.94564557], [25.22411292, 64.94544919], [25.22449796, 64.94526903], [25.22492665, 64.94510383], [25.22538741, 64.94494962], [25.22587141, 64.94480336], [25.22599111, 64.94476975], [25.22637197, 64.94466278], [25.22688411, 64.94452616], [25.22845828, 64.94412922], [25.23324553, 64.94296073], [25.23385736, 64.94280946], [25.23536406, 64.94243694], [25.2359151, 64.94229655], [25.23693945, 64.94203557], [25.23797365, 64.94175757], [25.23894499, 64.94147784], [25.23900321, 64.94146107], [25.24051972, 64.94099892], [25.24200759, 64.94052218], [25.24249601, 64.94035474], [25.24296995, 64.94019226], [25.24343452, 64.9400209], [25.2438821, 64.9398431], [25.24430641, 64.93965655], [25.24468114, 64.93947044], [25.24503367, 64.93927643], [25.24536831, 64.93907655], [25.24568793, 64.93887241], [25.24599417, 64.93866527], [25.24628754, 64.93845614], [25.2465675, 64.93824588], [25.24683248, 64.93803525], [25.24707997, 64.937825], [25.24730647, 64.93761594], [25.24747493, 64.93744929], [25.24751055, 64.93741405], [25.24772931, 64.93721746], [25.2480226, 64.93701046], [25.24836674, 64.9368121], [25.24875006, 64.93662093], [25.24916405, 64.93643617], [25.24960293, 64.93625773], [25.25006336, 64.93608618], [25.25054418, 64.93592279], [25.25104634, 64.93576967], [25.25157053, 64.93562862], [25.25211223, 64.93549726], [25.25266634, 64.93537288], [25.25272698, 64.93536026], [25.25379768, 64.93513746], [25.2560988, 64.93469013], [25.25862525, 64.93420962], [25.25863214, 64.93421254], [25.259642, 64.93401623], [25.26476459, 64.93304173], [25.26591184, 64.93281636], [25.26647992, 64.93270031], [25.2670416, 64.93258051], [25.26713409, 64.93255953], [25.26759386, 64.93245526], [25.26813257, 64.93232228], [25.26865215, 64.93217853], [25.26910516, 64.93203546], [25.26953833, 64.93188214], [25.26995233, 64.93171985], [25.27034626, 64.93154918], [25.27071758, 64.93137003], [25.27106197, 64.93118158], [25.27139757, 64.93096846], [25.271705, 64.93074626], [25.27199197, 64.93051753], [25.27216928, 64.93036561], [25.27226432, 64.93028418], [25.27278133, 64.92980888], [25.27327849, 64.92932759], [25.27372347, 64.92888527], [25.27498257, 64.92763365], [25.27572113, 64.9269107], [25.2762288, 64.92643342], [25.27676528, 64.92596483], [25.27690964, 64.92584994], [25.27705249, 64.92573624], [25.27735906, 64.92551345], [25.27769202, 64.92529858], [25.27805233, 64.92509587], [25.27843842, 64.92490088], [25.27884343, 64.92471156], [25.2792621, 64.92452633], [25.28012558, 64.92416367], [25.28100794, 64.92380662], [25.2841332, 64.9225685], [25.28503148, 64.92221767], [25.28593798, 64.92187142], [25.28686183, 64.92153459], [25.28733484, 64.92137212], [25.28782965, 64.92121116], [25.2883329, 64.9210547], [25.28935565, 64.92075048], [25.29051505, 64.92041541], [25.29193832, 64.92000405], [25.29295452, 64.91969724], [25.29345184, 64.91953856], [25.29393804, 64.91937447], [25.29440907, 64.91920305], [25.29486614, 64.91902094], [25.29530797, 64.91883154], [25.29573894, 64.91863703], [25.29741714, 64.9178418], [25.29783836, 64.91764682], [25.29786369, 64.9176356], [25.29826587, 64.91745738], [25.29870338, 64.91727638], [25.29915567, 64.91710762], [25.29962891, 64.91695607], [25.30013108, 64.91682821], [25.3006416, 64.91673347], [25.30117865, 64.91666032], [25.30173517, 64.91660291], [25.30230565, 64.9165566], [25.30288573, 64.91651769], [25.30332468, 64.91649254], [25.30465167, 64.9164165], [25.30524035, 64.91637954], [25.30582506, 64.91633658], [25.30640312, 64.91628446], [25.30697141, 64.91621933], [25.30752474, 64.91613851], [25.30806746, 64.91604414], [25.30860159, 64.9159393], [25.30912846, 64.91582623], [25.30964875, 64.91570641], [25.31016249, 64.91558072], [25.3106691, 64.91544941], [25.3111673, 64.91531221], [25.3116551, 64.91516827], [25.31215016, 64.91501051], [25.3126347, 64.91484633], [25.31306809, 64.91469065], [25.31358324, 64.9145056], [25.3149803, 64.91397937], [25.31821856, 64.9127391], [25.32146835, 64.91150414], [25.32284611, 64.91097079], [25.32343976, 64.91072833], [25.32373658, 64.91060709], [25.3241645, 64.91042024], [25.32457431, 64.91022818], [25.32495902, 64.9100289], [25.32530944, 64.90981981], [25.32561993, 64.90959741], [25.32589582, 64.90936506], [25.32614652, 64.9091254], [25.32637928, 64.90888047], [25.32659976, 64.90863187], [25.32743977, 64.90762496], [25.32765703, 64.90737594], [25.32781462, 64.90720692], [25.32788539, 64.90713103], [25.32813068, 64.90689253], [25.32840044, 64.90666351], [25.32870462, 64.9064481], [25.32905617, 64.90625177], [25.32945858, 64.90608217], [25.32990827, 64.90593398], [25.33039421, 64.90580508], [25.33090848, 64.9056952], [25.33144583, 64.90560597], [25.33200322, 64.90554096], [25.3325374, 64.90550524], [25.33308291, 64.90548972], [25.33363567, 64.90549029], [25.333725, 64.90549253], [25.33499374, 64.90554617], [25.33530587, 64.90556698], [25.33585743, 64.90561601], [25.33640184, 64.90567868], [25.33698055, 64.90576339], [25.33755007, 64.90586203], [25.3378875, 64.90592715], [25.33811266, 64.90597059], [25.33867008, 64.90608609], [25.33922368, 64.90620633], [25.34032314, 64.90645517], [25.34304491, 64.90709638], [25.34405522, 64.90734639], [25.3446523, 64.90749415], [25.34517853, 64.90763217], [25.34569688, 64.90777486], [25.34620459, 64.90792393], [25.34669498, 64.90807919], [25.34764998, 64.90840551], [25.34864163, 64.908757], [25.34906469, 64.90890695], [25.34954285, 64.90907044], [25.35002955, 64.90922884], [25.35053285, 64.90938192], [25.3509987, 64.90951501], [25.35104595, 64.90952851], [25.3515667, 64.90966929], [25.3520936, 64.90980428], [25.35262578, 64.90993282], [25.3531629, 64.91005343], [25.35327842, 64.91007691], [25.35370519, 64.9101637], [25.35425343, 64.91026008], [25.35480901, 64.91033766], [25.355374, 64.91038977], [25.35595731, 64.9104111], [25.3565498, 64.91040656], [25.35714886, 64.91038314], [25.35739041, 64.9103683], [25.35775244, 64.91034606], [25.35835894, 64.91029914], [25.35896707, 64.91024501], [25.3601838, 64.91012119], [25.36139389, 64.90997939], [25.36175059, 64.90993234], [25.36199319, 64.90990034], [25.36258631, 64.90981379], [25.36313588, 64.90972437], [25.36379473, 64.90960444], [25.36421865, 64.90952728], [25.36528571, 64.90931426], [25.36633936, 64.90908971], [25.36679578, 64.90898536], [25.36737628, 64.90885263], [25.36788574, 64.90872763], [25.36839462, 64.90859533], [25.36900825, 64.90842545], [25.36939493, 64.90831841], [25.37087169, 64.90788668], [25.3723343, 64.9074464], [25.37330066, 64.90714896], [25.37425267, 64.90684554], [25.37438204, 64.90680238], [25.3747192, 64.90668989], [25.37517598, 64.90653015], [25.3756194, 64.9063648], [25.37604473, 64.90619184], [25.3764676, 64.90600043], [25.37687082, 64.90580074], [25.37725975, 64.90559503], [25.37763847, 64.90538502], [25.37781542, 64.90528243], [25.38198345, 64.90278054], [25.38942985, 64.89950163], [25.38971192, 64.89935924], [25.39007381, 64.89915997], [25.39039913, 64.89895591], [25.39067389, 64.89874529], [25.39087981, 64.89852584], [25.39099612, 64.89831316], [25.39105474, 64.89809324], [25.39107347, 64.89786851], [25.39106968, 64.89772942], [25.39106726, 64.89764109], [25.39103077, 64.89718598], [25.39102367, 64.89696225], [25.39103947, 64.89674403], [25.39109077, 64.89653396], [25.39119178, 64.89633524], [25.39135999, 64.89614048], [25.39167933, 64.8958543], [25.39176169, 64.89578049], [25.39191827, 64.89560635], [25.39198989, 64.89543084], [25.39194128, 64.89524838], [25.39178826, 64.89506254], [25.39155617, 64.89487521], [25.391264, 64.89468834], [25.39092549, 64.89450404], [25.39055002, 64.8943247], [25.39014342, 64.89415316], [25.38970847, 64.8939929], [25.38924543, 64.89384821], [25.38878551, 64.89372904], [25.38776091, 64.8935], [25.38739317, 64.89341779], [25.38697491, 64.89330962], [25.38660861, 64.89318889], [25.38631628, 64.89304834], [25.38612053, 64.89288849], [25.38599466, 64.8927083], [25.38591902, 64.89251252], [25.38587724, 64.89230491], [25.38577705, 64.89110536], [25.38554682, 64.88928646], [25.38551414, 64.88877027], [25.38552032, 64.88851458], [25.38555052, 64.88826135], [25.38561425, 64.88801148], [25.38572384, 64.88776618], [25.38587676, 64.88754227], [25.38607139, 64.88732257], [25.38629842, 64.88710625], [25.38655089, 64.88689276], [25.38667213, 64.88679904], [25.39590496, 64.8865793], [25.42279434, 64.88593606], [25.44408673, 64.88808074], [25.44704495, 64.88837844], [25.4450745, 64.89230143], [25.44425023, 64.89394212], [25.44404778, 64.894098], [25.44269329, 64.89514085], [25.44091394, 64.89651067], [25.43859558, 64.90060194], [25.43815199, 64.90138461], [25.43793211, 64.90163442], [25.43648307, 64.90315563], [25.43418813, 64.90556448], [25.43399621, 64.90597762], [25.43363999, 64.90645358], [25.43270484, 64.90758035], [25.43218085, 64.90800179], [25.43158383, 64.90841388], [25.43080664, 64.90903854], [25.43263248, 64.91453899], [25.4334099, 64.91688036], [25.43349093, 64.91735116], [25.43409575, 64.91874424], [25.43346209, 64.92167772], [25.43724632, 64.92481816], [25.44136114, 64.92657698], [25.4414702, 64.92663147], [25.44320809, 64.92746559], [25.44457353, 64.92808877], [25.44615907, 64.92856609], [25.44966023, 64.93168386], [25.44269282, 64.9376968], [25.43712027, 64.94100318], [25.43663245, 64.94132168], [25.43591844, 64.94158557], [25.43565294, 64.94203861], [25.43537189, 64.94251816], [25.43542143, 64.94330684], [25.43571047, 64.94494534], [25.43579031, 64.94563764], [25.43589607, 64.94567518], [25.43748444, 64.94762751], [25.43727534, 64.94760773], [25.43685302, 64.94756093], [25.43643238, 64.94750835], [25.43586918, 64.94742945], [25.43531196, 64.94734163], [25.43476326, 64.94724448], [25.43422629, 64.94713681], [25.43370561, 64.9470186], [25.43239693, 64.94669311], [25.43219627, 64.94664319], [25.43170002, 64.94652862], [25.43120264, 64.94642934], [25.43070146, 64.94635307], [25.43019362, 64.94630926], [25.4296477, 64.94630632], [25.42909347, 64.94633992], [25.42853312, 64.94640016], [25.42801827, 64.94647258], [25.42796839, 64.94647959], [25.4274007, 64.94657268], [25.42683123, 64.94667542], [25.42626104, 64.94678503], [25.4256912, 64.94689969], [25.42455731, 64.94714065], [25.4239963, 64.94726682], [25.42352703, 64.94737761], [25.423442, 64.94739769], [25.42289721, 64.94753468], [25.42236563, 64.94767991], [25.4218646, 64.94783053], [25.42137549, 64.94798845], [25.42115408, 64.94806327], [25.42089423, 64.94815109], [25.41898568, 64.94881026], [25.41849952, 64.94896896], [25.41719227, 64.94937243], [25.41716527, 64.94938076], [25.41672802, 64.94952066], [25.41630325, 64.94966652], [25.41587708, 64.94982799], [25.41546792, 64.94999749], [25.41507342, 64.95017353], [25.41469248, 64.95035513], [25.41432517, 64.95054174], [25.4139728, 64.95073332], [25.41363798, 64.95093021], [25.41332478, 64.95113324], [25.41302881, 64.951349], [25.4127543, 64.95157056], [25.41251808, 64.95177673], [25.41249558, 64.95179636], [25.41200951, 64.95225623], [25.41154857, 64.95272243], [25.4108859, 64.9534276], [25.41046594, 64.95390091], [25.41046014, 64.95390805], [25.4100776, 64.95437831], [25.40990266, 64.95461947], [25.40973609, 64.95487676], [25.40944525, 64.95539682], [25.40918797, 64.95592133], [25.4084694, 64.95750066], [25.40820532, 64.95802026], [25.40805637, 64.95827564], [25.40788888, 64.95852618], [25.4076951, 64.95876978], [25.40746455, 64.95900366], [25.40718339, 64.9592241], [25.40683973, 64.95942846], [25.40644526, 64.95961929], [25.4060138, 64.95980023], [25.40583654, 64.95986747], [25.40555571, 64.95997399], [25.40507864, 64.96014248], [25.40458802, 64.96030697], [25.40408753, 64.96046815], [25.40306488, 64.96078098], [25.40254382, 64.96093158], [25.40204099, 64.96106969], [25.40201534, 64.96107674], [25.40147746, 64.96121449], [25.40092716, 64.96134211], [25.40037841, 64.96145417], [25.39981813, 64.96155657], [25.39951462, 64.9616074], [25.39924951, 64.9616518], [25.3986749, 64.96174167], [25.39809603, 64.96182741], [25.39692987, 64.96198894], [25.39575591, 64.96213688], [25.39540327, 64.96217697], [25.39516617, 64.96220393], [25.39457413, 64.96226437], [25.39397913, 64.9623159], [25.39338019, 64.96235546], [25.39276621, 64.96238087], [25.39214825, 64.96239405], [25.39152746, 64.96239836], [25.39090474, 64.96239642], [25.38840909, 64.96236256], [25.38716978, 64.96235122], [25.38709806, 64.96235145], [25.38655654, 64.96235319], [25.38595035, 64.96236383], [25.38535417, 64.96238689], [25.38477192, 64.96242728], [25.38420877, 64.96249144], [25.3836595, 64.96258643], [25.38312988, 64.96270593], [25.38261447, 64.96284319], [25.38212402, 64.96298873], [25.38210916, 64.96299314], [25.38161088, 64.96315199], [25.38062694, 64.96348596], [25.37965104, 64.96383082], [25.3742991, 64.96574696], [25.37334956, 64.96609825], [25.37332608, 64.9661073], [25.3732998, 64.96611661], [25.3680148, 64.96706798]]]}}, {"type": "Feature", "properties": {"area_ID": 67, "area": "Oulun keskusta"}, "geometry": {"type": "MultiPolygon", "coordinates": [[[[25.47272614, 65.00332855], [25.47193597, 65.00264074], [25.47132581, 65.00273603], [25.47079819, 65.00252471], [25.46835969, 65.00311947], [25.46736064, 65.00340308], [25.46688776, 65.00344756], [25.46631742, 65.00336937], [25.46572388, 65.00328608], [25.46365221, 65.00304792], [25.46263994, 65.0028764], [25.46140632, 65.00202426], [25.45946965, 65.00057335], [25.45737283, 64.99952986], [25.45370985, 64.99671669], [25.45074446, 64.99696633], [25.44677248, 64.99952149], [25.44528993, 64.99897304], [25.4373146, 64.99931391], [25.43816383, 65.00300715], [25.44063997, 65.00329266], [25.44328786, 65.00584346], [25.44309245, 65.0082971], [25.44432172, 65.00829526], [25.44493453, 65.00830317], [25.44550868, 65.00831843], [25.44608037, 65.00834097], [25.44664887, 65.00837039], [25.44721315, 65.00840686], [25.44777176, 65.00845119], [25.4483227, 65.00850489], [25.44886336, 65.00857025], [25.44939029, 65.00865045], [25.44993288, 65.00875486], [25.45046019, 65.0088753], [25.4509762, 65.0090075], [25.45103097, 65.00902268], [25.45148384, 65.00914822], [25.45198512, 65.00929511], [25.45248126, 65.00944649], [25.4528758, 65.00957249], [25.45345939, 65.00975885], [25.45441337, 65.01008207], [25.4548761, 65.01024858], [25.4553244, 65.01041966], [25.45575278, 65.01059692], [25.45615388, 65.01078257], [25.45651809, 65.01097957], [25.45683286, 65.0111867], [25.45687651, 65.0112207], [25.45711252, 65.01140456], [25.45736718, 65.01163001], [25.45760505, 65.01186046], [25.45828317, 65.01256068], [25.45836001, 65.01263615], [25.45851709, 65.01279042], [25.45876548, 65.01301462], [25.45903617, 65.01323047], [25.45933876, 65.01343441], [25.45968522, 65.01362204], [25.46010138, 65.01379589], [25.46056485, 65.01395217], [25.46106295, 65.0140956], [25.46158583, 65.0142298], [25.46212573, 65.01435756], [25.46267637, 65.01448101], [25.46488185, 65.01496225], [25.46540527, 65.01508593], [25.46590167, 65.01521392], [25.46635897, 65.01534825], [25.46676122, 65.01549157], [25.4670875, 65.01564728], [25.4673106, 65.01581979], [25.4674091, 65.01601063], [25.46741116, 65.01621728], [25.46734898, 65.01643464], [25.46703771, 65.01710985], [25.46697229, 65.01733009], [25.46696911, 65.01754118], [25.46705991, 65.01773812], [25.46726119, 65.0179111], [25.46755636, 65.01806885], [25.46792198, 65.01821392], [25.46833996, 65.01834774], [25.46879648, 65.01847075], [25.46928121, 65.01858234], [25.46978645, 65.01868081], [25.4703066, 65.01876332], [25.4708376, 65.01882572], [25.47137651, 65.01886237], [25.47189132, 65.01886981], [25.47240695, 65.01885847], [25.47300695, 65.01883477], [25.47342305, 65.01881833], [25.47386308, 65.01880943], [25.47391346, 65.01880841], [25.47438379, 65.01881858], [25.47482598, 65.01886024], [25.47513256, 65.01892281], [25.47525056, 65.0189469], [25.47564081, 65.01907086], [25.47600127, 65.01922305], [25.47633364, 65.01939641], [25.47663674, 65.01958547], [25.47690629, 65.0197861], [25.47713457, 65.01999508], [25.47730991, 65.02020995], [25.47741594, 65.02042868], [25.4774273, 65.02054624], [25.47746963, 65.02055643], [25.477729, 65.02066501], [25.4783004, 65.02080068], [25.47868945, 65.02085029], [25.4791012, 65.02094947], [25.47957722, 65.02106414], [25.48056179, 65.0213013], [25.48109153, 65.0214289], [25.48116972, 65.02144773], [25.48273081, 65.02177359], [25.48327046, 65.02188529], [25.48401241, 65.02200205], [25.48474451, 65.02208052], [25.48538362, 65.02214902], [25.48569097, 65.02218196], [25.48643928, 65.02225556], [25.48672017, 65.02224362], [25.49134426, 65.02200437], [25.49573895, 65.02234921], [25.49978585, 65.02278197], [25.50847763, 65.02252612], [25.50821472, 65.02081944], [25.50801969, 65.01570413], [25.50806123, 65.01478226], [25.50747396, 65.01200323], [25.50726792, 65.01100023], [25.50566449, 65.0080703], [25.50482735, 65.00597792], [25.5047409, 65.00597937], [25.49081221, 65.0056717], [25.48234015, 65.00707879], [25.47989539, 65.00698817], [25.4784786, 65.0071129], [25.47616988, 65.00554906], [25.47549521, 65.00504037], [25.4750161, 65.004936], [25.47427189, 65.00429886], [25.47272614, 65.00332855]]], [[[25.45669294, 65.01662079], [25.45624587, 65.01667873], [25.45617011, 65.01668855], [25.45569022, 65.0167747], [25.45468892, 65.01698635], [25.45419385, 65.01709932], [25.45408992, 65.01712541], [25.45371174, 65.01722035], [25.45325046, 65.01735281], [25.45281917, 65.01750092], [25.4523983, 65.01768009], [25.45200948, 65.017876], [25.451641, 65.01808306], [25.45156323, 65.0181301], [25.45056967, 65.018731], [25.45019953, 65.0189453], [25.44981114, 65.01915386], [25.44943903, 65.01933655], [25.44874775, 65.01965993], [25.44829316, 65.01987258], [25.44793522, 65.02005727], [25.44759963, 65.02025294], [25.44729371, 65.02045394], [25.44701695, 65.02065729], [25.44677162, 65.02085993], [25.44656312, 65.02105848], [25.44640039, 65.02124905], [25.44629659, 65.02142688], [25.44626989, 65.02158608], [25.44634447, 65.02171916], [25.44648692, 65.02179925], [25.44669549, 65.02185624], [25.44705748, 65.02189503], [25.44749121, 65.02189912], [25.44797606, 65.02187721], [25.44819023, 65.02186011], [25.44849612, 65.02183569], [25.44903906, 65.02177907], [25.44959504, 65.02171021], [25.45015592, 65.0216306], [25.45071447, 65.02154042], [25.45081122, 65.02152247], [25.45126367, 65.02143856], [25.45179607, 65.02132266], [25.45222881, 65.02121135], [25.45264236, 65.02108846], [25.45303473, 65.02095451], [25.45340283, 65.02080929], [25.45379686, 65.02062655], [25.45416221, 65.02043202], [25.45450712, 65.02022946], [25.45466824, 65.02012863], [25.45483853, 65.02002206], [25.45581167, 65.01939813], [25.45614927, 65.01919911], [25.45650561, 65.01901051], [25.45690902, 65.01882861], [25.45743269, 65.01862991], [25.45790516, 65.01846874], [25.45860379, 65.01823042], [25.45915929, 65.01803132], [25.4596365, 65.01783484], [25.45999855, 65.01764496], [25.46019419, 65.01750124], [25.46029907, 65.01738843], [25.4603075, 65.01737936], [25.46034882, 65.01729129], [25.46032299, 65.01724718], [25.46031063, 65.01719713], [25.46019248, 65.01710043], [25.4601612, 65.01708287], [25.45997257, 65.01697705], [25.4596507, 65.01684881], [25.45916374, 65.01672232], [25.45857421, 65.01663058], [25.45792058, 65.01658162], [25.45724538, 65.01658147], [25.45669294, 65.01662079]]], [[[25.4621696, 65.01859608], [25.46173497, 65.01860892], [25.46160418, 65.01861637], [25.46132824, 65.0186321], [25.46095622, 65.01867262], [25.46062751, 65.01873831], [25.46032275, 65.01884501], [25.46015793, 65.01892719], [25.46005234, 65.01897983], [25.45953798, 65.01928057], [25.45928178, 65.01943583], [25.45923145, 65.01946843], [25.45903093, 65.0195983], [25.45879616, 65.01976877], [25.4585615, 65.01996841], [25.45853508, 65.01999308], [25.45811947, 65.02038112], [25.45796572, 65.02050995], [25.45787671, 65.02058454], [25.45760805, 65.02077683], [25.45699693, 65.02116999], [25.4567492, 65.02132937], [25.4565025, 65.0215119], [25.45630843, 65.02169627], [25.45619245, 65.02186775], [25.45613492, 65.02203705], [25.45613243, 65.02219891], [25.45619629, 65.02236674], [25.45633409, 65.02250705], [25.45655417, 65.02260745], [25.4568194, 65.02265393], [25.4571401, 65.02266616], [25.45750123, 65.02265003], [25.45789024, 65.0226098], [25.45837135, 65.02253597], [25.45886681, 65.02243988], [25.45936884, 65.02232686], [25.45987094, 65.02220068], [25.46036728, 65.02206375], [25.46085225, 65.02191747], [25.46165111, 65.02165479], [25.46218062, 65.02148068], [25.46263048, 65.02134977], [25.46309931, 65.02123859], [25.46359394, 65.02115362], [25.46411141, 65.02109069], [25.46464566, 65.02104413], [25.46510338, 65.02101484], [25.4651916, 65.0210092], [25.46634236, 65.02095737], [25.46685555, 65.02093426], [25.4674121, 65.02090168], [25.46797425, 65.02084324], [25.4684669, 65.02076465], [25.46891374, 65.02066407], [25.46929134, 65.02054461], [25.46957788, 65.02040981], [25.46975547, 65.02026407], [25.46981927, 65.02009877], [25.46977156, 65.019948], [25.46965003, 65.01983101], [25.46953506, 65.01977632], [25.46940327, 65.01975026], [25.46939118, 65.0197093], [25.46928805, 65.01961473], [25.46916618, 65.01952978], [25.46909749, 65.0194819], [25.46881982, 65.01932689], [25.46845425, 65.01916603], [25.46806349, 65.01903294], [25.46761503, 65.01891386], [25.46698232, 65.0187891], [25.46630869, 65.01869518], [25.46562796, 65.01863083], [25.46550323, 65.01862384], [25.46497472, 65.01859424], [25.46437971, 65.01858275], [25.46324443, 65.01858214], [25.4621696, 65.01859608]]]]}}, {"type": "Feature", "properties": {"area_ID": 68, "area": "Limingantulli"}, "geometry": {"type": "Polygon", "coordinates": [[[25.4373146, 64.99931391], [25.43816383, 65.00300715], [25.44063997, 65.00329266], [25.44328786, 65.00584346], [25.44309245, 65.0082971], [25.44302695, 65.00829773], [25.44125925, 65.00831458], [25.44063571, 65.00832053], [25.44002548, 65.00832116], [25.4394186, 65.00831585], [25.43881646, 65.00830187], [25.43822086, 65.00827568], [25.43763421, 65.00823277], [25.43707181, 65.00817118], [25.43651807, 65.00809341], [25.43597086, 65.00800358], [25.435591, 65.00793439], [25.4354286, 65.00790481], [25.43489022, 65.0077994], [25.43382299, 65.00757462], [25.43276898, 65.00733589], [25.43224872, 65.00721137], [25.43188714, 65.00712076], [25.4317349, 65.00708261], [25.43122974, 65.00694843], [25.43073625, 65.00680716], [25.43024541, 65.00665366], [25.42976678, 65.00649288], [25.42943499, 65.0063732], [25.42883456, 65.00615662], [25.42792421, 65.00580814], [25.42703076, 65.00545133], [25.42659128, 65.00526976], [25.42640749, 65.00519004], [25.42573379, 65.00489783], [25.42510109, 65.00459964], [25.42494544, 65.00452628], [25.42380631, 65.00395197], [25.42270387, 65.00336491], [25.42216345, 65.00305823], [25.42199893, 65.00296486], [25.42166212, 65.00276064], [25.42134088, 65.00255235], [25.42115632, 65.00242169], [25.42101933, 65.0023247], [25.42071769, 65.00209222], [25.42043388, 65.0018558], [25.42016769, 65.00161595], [25.41992083, 65.00137287], [25.41969703, 65.00112644], [25.4195023, 65.00087624], [25.41947781, 65.00083652], [25.41934525, 65.00062155], [25.41924923, 65.00040121], [25.41923573, 65.00037025], [25.41915986, 65.00011519], [25.41910749, 64.9998576], [25.41897854, 64.9988261], [25.41893145, 64.99857576], [25.41886248, 64.99833319], [25.41876085, 64.99810218], [25.41862565, 64.9979062], [25.41861296, 64.99788781], [25.41840154, 64.99769684], [25.41814064, 64.99754887], [25.41782564, 64.99742779], [25.41747039, 64.99733552], [25.41708604, 64.99727609], [25.41668156, 64.99725582], [25.41623126, 64.99728325], [25.41577063, 64.99735231], [25.41572638, 64.99736175], [25.41530293, 64.99745207], [25.41483044, 64.99757411], [25.41435467, 64.99771201], [25.41339655, 64.99801703], [25.41145557, 64.99866175], [25.41096221, 64.99881685], [25.41046358, 64.99896449], [25.40995825, 64.9991012], [25.40944455, 64.99922248], [25.40892284, 64.99932363], [25.40839848, 64.99940359], [25.40787943, 64.99946049], [25.40737454, 64.99949047], [25.40689422, 64.99948731], [25.40645111, 64.9994421], [25.40607064, 64.99935227], [25.40573028, 64.99922503], [25.40542442, 64.99907031], [25.40531957, 64.99900359], [25.40515052, 64.99889602], [25.40490906, 64.99870848], [25.40470373, 64.99851284], [25.4045943, 64.99837815], [25.4045417, 64.99831342], [25.40443408, 64.99811403], [25.40439661, 64.99791826], [25.40445039, 64.99772972], [25.40462082, 64.99754422], [25.40488724, 64.99736805], [25.40522436, 64.99719908], [25.40561275, 64.99703555], [25.40603758, 64.99687605], [25.40618388, 64.99682515], [25.40648768, 64.99671945], [25.40743214, 64.99641128], [25.40888464, 64.99595027], [25.40983849, 64.9956346], [25.4103027, 64.99547118], [25.41077253, 64.99529609], [25.41123174, 64.99511645], [25.4121277, 64.99474798], [25.41343861, 64.99418265], [25.4147306, 64.99361077], [25.4172973, 64.99246252], [25.4185896, 64.99189601], [25.41932881, 64.99158974], [25.41946949, 64.99153146], [25.41992076, 64.99135723], [25.42038389, 64.99119142], [25.42086345, 64.99103727], [25.42136547, 64.99089905], [25.42189277, 64.99078063], [25.42244247, 64.99067807], [25.42300868, 64.99058719], [25.42358694, 64.99050478], [25.42417389, 64.99042844], [25.42491668, 64.99034033], [25.42536438, 64.99028723], [25.42567541, 64.99025278], [25.42897007, 64.98988787], [25.43014901, 64.98974257], [25.43039974, 64.98970754], [25.43072392, 64.98966225], [25.43128317, 64.98957375], [25.43182027, 64.9894738], [25.43232658, 64.98935802], [25.43279072, 64.98922069], [25.43316623, 64.98907349], [25.43350332, 64.9889077], [25.43380776, 64.98872733], [25.43408305, 64.9885354], [25.43433063, 64.98833406], [25.43454998, 64.98812478], [25.43476346, 64.9878813], [25.4349523, 64.9876326], [25.4351629, 64.9873333], [25.43530426, 64.9871324], [25.43549004, 64.98688711], [25.43569842, 64.98664961], [25.43594364, 64.98642409], [25.43624293, 64.98621572], [25.4366083, 64.98602938], [25.43702933, 64.98586046], [25.43749119, 64.98570432], [25.43798261, 64.98555741], [25.43836811, 64.98545184], [25.43849505, 64.98541708], [25.4390222, 64.98528133], [25.44010327, 64.9850182], [25.44672191, 64.98347994], [25.45440621, 64.9816716], [25.45526274, 64.98147592], [25.45550981, 64.98141948], [25.45662356, 64.98117716], [25.45718705, 64.98106239], [25.45775719, 64.98095404], [25.45832113, 64.98085592], [25.45946663, 64.98067665], [25.46120961, 64.98043114], [25.46471507, 64.97995937], [25.46586897, 64.97979231], [25.46592962, 64.97978277], [25.46643712, 64.97970291], [25.46699589, 64.97960732], [25.46704147, 64.97959861], [25.47290866, 64.97924834], [25.474971, 64.98047867], [25.47691639, 64.98122531], [25.47692264, 64.98175516], [25.48032737, 64.98269149], [25.47937668, 64.98543496], [25.47606426, 64.9890843], [25.47139512, 64.99380083], [25.47268045, 64.99598308], [25.47201316, 64.99670128], [25.47067401, 64.99943541], [25.47063408, 64.99948967], [25.4705619, 64.99958774], [25.47178516, 65.00161373], [25.47193597, 65.00264074], [25.47132581, 65.00273603], [25.47079819, 65.00252471], [25.46835969, 65.00311947], [25.46736064, 65.00340308], [25.46688776, 65.00344756], [25.46631742, 65.00336937], [25.46572388, 65.00328608], [25.46365221, 65.00304792], [25.46263994, 65.0028764], [25.46140632, 65.00202426], [25.45946965, 65.00057335], [25.45737283, 64.99952986], [25.45370985, 64.99671669], [25.45074446, 64.99696633], [25.44677248, 64.99952149], [25.44528993, 64.99897304], [25.4373146, 64.99931391]]]}}, {"type": "Feature", "properties": {"area_ID": 69, "area": "Kaakkuri"}, "geometry": {"type": "Polygon", "coordinates": [[[25.56931917, 64.96617644], [25.58677879, 64.96539497], [25.59514798, 64.96425536], [25.59860155, 64.96224843], [25.59306998, 64.94301082], [25.59282729, 64.94099596], [25.59246447, 64.93798336], [25.59237584, 64.93687961], [25.59248982, 64.93330498], [25.59251555, 64.93294219], [25.59221108, 64.93269892], [25.56170749, 64.93686972], [25.53943814, 64.94161881], [25.53177723, 64.93972084], [25.52351222, 64.93961501], [25.52217666, 64.94118395], [25.49330748, 64.94308342], [25.47669147, 64.94472086], [25.47216348, 64.95068488], [25.47306053, 64.95095716], [25.47610622, 64.95190115], [25.47761913, 64.9523781], [25.47861152, 64.95270338], [25.47898753, 64.95283278], [25.4790974, 64.95287059], [25.47957238, 64.95304261], [25.4800321, 64.95322132], [25.48046437, 64.95340452], [25.48088112, 64.9535944], [25.48119772, 64.95374707], [25.48128557, 64.95378943], [25.48167973, 64.95398856], [25.4824397, 64.95439697], [25.48267789, 64.95453372], [25.48280402, 64.95460613], [25.48315498, 64.95481912], [25.48348878, 64.95503683], [25.48378774, 64.9552493], [25.48407122, 64.95546587], [25.48411891, 64.95550529], [25.48460534, 64.95590737], [25.48486024, 64.95613101], [25.48534962, 64.95658231], [25.48580723, 64.95703857], [25.48585057, 64.95708572], [25.486019, 64.95726897], [25.48621452, 64.95750141], [25.48638846, 64.95773653], [25.48654692, 64.95799331], [25.48668106, 64.95825307], [25.48675918, 64.95842866], [25.48679756, 64.95851495], [25.48699589, 64.9590427], [25.48716534, 64.95957325], [25.48731233, 64.96010476], [25.48742746, 64.96063272], [25.48742822, 64.96063622], [25.48746716, 64.96090169], [25.48748677, 64.96116686], [25.48747983, 64.96143163], [25.48744221, 64.96168722], [25.48737956, 64.96194242], [25.4872986, 64.96219733], [25.48720447, 64.96245202], [25.48719333, 64.9624786], [25.48699127, 64.96296096], [25.48618419, 64.9647419], [25.48597796, 64.96525222], [25.48580391, 64.96577318], [25.48566347, 64.96630487], [25.48548805, 64.96710449], [25.48528032, 64.96817243], [25.4848854, 64.9703119], [25.48477663, 64.97084662], [25.48464606, 64.97137962], [25.48461308, 64.97148786], [25.4845653, 64.97164469], [25.48446807, 64.97190815], [25.48434776, 64.97216924], [25.48421353, 64.97240356], [25.48405833, 64.97263539], [25.48400701, 64.97270359], [25.48388572, 64.97286479], [25.4836978, 64.97309157], [25.48349523, 64.97331527], [25.4832772, 64.97353509], [25.48325348, 64.9735567], [25.48304143, 64.97374988], [25.48278398, 64.97395801], [25.48249903, 64.97415734], [25.48217863, 64.97434503], [25.48178241, 64.97453365], [25.48134606, 64.97470889], [25.48088059, 64.97487438], [25.48040186, 64.97503046], [25.48039436, 64.97503291], [25.47989362, 64.97518655], [25.478866, 64.97548507], [25.47677756, 64.97607211], [25.47574295, 64.97637085], [25.47473265, 64.97668094], [25.47424306, 64.97684315], [25.47377832, 64.97700794], [25.47332687, 64.97717824], [25.47288834, 64.97735324], [25.47246338, 64.97753248], [25.47205368, 64.97771582], [25.47166204, 64.97790337], [25.47129238, 64.97809551], [25.47089381, 64.97832025], [25.47073276, 64.97841106], [25.47044371, 64.97856448], [25.47010259, 64.97872356], [25.4697359, 64.97887383], [25.46934733, 64.9790157], [25.46893932, 64.97914908], [25.46851314, 64.97927332], [25.46806892, 64.97938719], [25.46754149, 64.97950313], [25.46704147, 64.97959861], [25.47290866, 64.97924834], [25.474971, 64.98047867], [25.47691639, 64.98122531], [25.47692264, 64.98175516], [25.48032737, 64.98269149], [25.48363166, 64.9812972], [25.48614984, 64.98038206], [25.49228058, 64.97815362], [25.51212271, 64.97674685], [25.51107605, 64.97551655], [25.51561494, 64.97456599], [25.52235319, 64.97341961], [25.52482051, 64.97517427], [25.52716524, 64.97568617], [25.55111705, 64.96865688], [25.56931917, 64.96617644]]]}}, {"type": "Feature", "properties": {"area_ID": 70, "area": "It\u00e4-Oulu"}, "geometry": {"type": "Polygon", "coordinates": [[[25.51876961, 65.00048696], [25.51103841, 65.00612101], [25.50849141, 65.00447384], [25.5078728, 65.00466701], [25.50775054, 65.00471049], [25.50676415, 65.0051064], [25.50518006, 65.00580298], [25.50488016, 65.00594845], [25.50482735, 65.00597792], [25.50566449, 65.0080703], [25.50726792, 65.01100023], [25.50747396, 65.01200323], [25.50806123, 65.01478226], [25.50801969, 65.01570413], [25.50821472, 65.02081944], [25.50847763, 65.02252612], [25.50866056, 65.02455683], [25.50831998, 65.02694567], [25.51608512, 65.02780987], [25.52204532, 65.02850278], [25.52627064, 65.02943661], [25.52825961, 65.03010074], [25.52925964, 65.03045531], [25.52937807, 65.03045558], [25.53058406, 65.03079377], [25.53285504, 65.03155725], [25.53430261, 65.03206962], [25.53742024, 65.03304203], [25.54095948, 65.03406473], [25.54439617, 65.0352251], [25.54853566, 65.03663582], [25.54935996, 65.0369167], [25.55017022, 65.03713283], [25.55126222, 65.03742409], [25.55390022, 65.03561493], [25.55844393, 65.03296388], [25.56041622, 65.03200502], [25.56868659, 65.02688018], [25.56854824, 65.02205411], [25.57138339, 65.01146852], [25.58447645, 65.00238151], [25.59441925, 64.99616733], [25.60538831, 64.98982604], [25.61086467, 64.98713556], [25.60416496, 64.98587014], [25.60101321, 64.98564776], [25.59433429, 64.98507954], [25.58835431, 64.98754562], [25.57858744, 64.99145122], [25.57238369, 64.99243881], [25.57018082, 64.9931057], [25.5676753, 64.99537488], [25.56725383, 64.99645764], [25.56714742, 64.99666598], [25.56679137, 64.99695828], [25.56652104, 64.99721449], [25.56604948, 64.99751062], [25.56591622, 64.99758313], [25.56589858, 64.99759138], [25.56562373, 64.99779893], [25.56510409, 64.99832935], [25.56507986, 64.9983989], [25.56453026, 64.99889965], [25.56379856, 64.99975774], [25.56377648, 64.99977933], [25.56064206, 64.99907232], [25.55595043, 64.99757111], [25.55118504, 64.9958245], [25.54359654, 64.99322349], [25.54049696, 64.99221915], [25.53866311, 64.99160931], [25.53547072, 64.99266589], [25.53269134, 64.99387694], [25.52991008, 64.99482179], [25.52768394, 64.99586119], [25.52548734, 64.99675371], [25.52401352, 64.99754471], [25.52205174, 64.99897791], [25.52142645, 64.99960328], [25.51876961, 65.00048696]]]}}, {"type": "Feature", "properties": {"area_ID": 72, "area": "Etel\u00e4-Oulu"}, "geometry": {"type": "Polygon", "coordinates": [[[25.60101321, 64.98564776], [25.60175132, 64.98343121], [25.6036362, 64.98027728], [25.60566274, 64.97824337], [25.60831892, 64.97711359], [25.61620268, 64.97591827], [25.61307736, 64.97380205], [25.60667293, 64.97223883], [25.6031744, 64.97200904], [25.60117364, 64.97188877], [25.59583645, 64.97149335], [25.59296843, 64.96924477], [25.59514798, 64.96425536], [25.58677879, 64.96539497], [25.56931917, 64.96617644], [25.55111705, 64.96865688], [25.52716524, 64.97568617], [25.52482051, 64.97517427], [25.52235319, 64.97341961], [25.51561494, 64.97456599], [25.51107605, 64.97551655], [25.51212271, 64.97674685], [25.49228058, 64.97815362], [25.48614984, 64.98038206], [25.48363166, 64.9812972], [25.48032737, 64.98269149], [25.47937668, 64.98543496], [25.47606426, 64.9890843], [25.47139512, 64.99380083], [25.47268045, 64.99598308], [25.47201316, 64.99670128], [25.47067401, 64.99943541], [25.47063408, 64.99948967], [25.4705619, 64.99958774], [25.47178516, 65.00161373], [25.47193597, 65.00264074], [25.47272614, 65.00332855], [25.47427189, 65.00429886], [25.4750161, 65.004936], [25.47549521, 65.00504037], [25.47616988, 65.00554906], [25.4784786, 65.0071129], [25.47989539, 65.00698817], [25.48234015, 65.00707879], [25.49081221, 65.0056717], [25.5047409, 65.00597937], [25.50482735, 65.00597792], [25.50488016, 65.00594845], [25.50518006, 65.00580298], [25.50676415, 65.0051064], [25.50775054, 65.00471049], [25.5078728, 65.00466701], [25.50849141, 65.00447384], [25.51103841, 65.00612101], [25.51876961, 65.00048696], [25.52142645, 64.99960328], [25.52205174, 64.99897791], [25.52401352, 64.99754471], [25.52548734, 64.99675371], [25.52768394, 64.99586119], [25.52991008, 64.99482179], [25.53269134, 64.99387694], [25.53547072, 64.99266589], [25.53866311, 64.99160931], [25.54049696, 64.99221915], [25.54359654, 64.99322349], [25.55118504, 64.9958245], [25.55595043, 64.99757111], [25.56064206, 64.99907232], [25.56377648, 64.99977933], [25.56379856, 64.99975774], [25.56453026, 64.99889965], [25.56507986, 64.9983989], [25.56510409, 64.99832935], [25.56562373, 64.99779893], [25.56589858, 64.99759138], [25.56591622, 64.99758313], [25.56604948, 64.99751062], [25.56652104, 64.99721449], [25.56679137, 64.99695828], [25.56714742, 64.99666598], [25.56725383, 64.99645764], [25.5676753, 64.99537488], [25.57018082, 64.9931057], [25.57238369, 64.99243881], [25.57858744, 64.99145122], [25.58835431, 64.98754562], [25.59433429, 64.98507954], [25.60101321, 64.98564776]]]}}]}