{"type": "FeatureCollection", "features": [{"type": "Feature", "properties": {"Subarea ID": 54, "Subarea": "Kytt\u00e4l\u00e4-Kaleva"}, "geometry": {"type": "Polygon", "coordinates": [[[23.81933116, 61.48651307], [23.81923679, 61.48642784], [23.81760186, 61.48616095], [23.81365258, 61.48496553], [23.81365363, 61.48495019], [23.81140322, 61.48556949], [23.80190419, 61.48680707], [23.79925737, 61.4874842], [23.79813427, 61.48770561], [23.79714644, 61.48784682], [23.79672687, 61.4878851], [23.79060345, 61.48586552], [23.79020506, 61.48574232], [23.79007443, 61.48572192], [23.78967236, 61.48558926], [23.78966721, 61.48558878], [23.78896125, 61.48530569], [23.78875358, 61.4851322], [23.7880578, 61.48491263], [23.78686269, 61.48464879], [23.78673913, 61.48464883], [23.78635327, 61.4845298], [23.78624747, 61.48446158], [23.78587723, 61.48438799], [23.78502913, 61.48421264], [23.784482, 61.484063], [23.78388426, 61.48407516], [23.78378092, 61.48405083], [23.78327686, 61.48402298], [23.78276338, 61.48398441], [23.78187854, 61.48391161], [23.77736169, 61.48398568], [23.77698053, 61.48340494], [23.77563389, 61.48106382], [23.77271807, 61.48221053], [23.77351538, 61.48454955], [23.77351534, 61.48454989], [23.77351376, 61.48456517], [23.76934342, 61.48610163], [23.76065661, 61.48599576], [23.75517742, 61.48887978], [23.75744062, 61.49033797], [23.75772083, 61.49293129], [23.76229025, 61.49436051], [23.76447914, 61.49541554], [23.76351723, 61.49716792], [23.7622892, 61.49710904], [23.76177164, 61.49671881], [23.76044951, 61.49675836], [23.76012582, 61.49714446], [23.76057018, 61.49816984], [23.760588, 61.49931268], [23.76222864, 61.49985585], [23.76212601, 61.50040143], [23.7613193, 61.50198248], [23.75563051, 61.50550795], [23.75705795, 61.51060245], [23.75469121, 61.51290128], [23.75178705, 61.51470845], [23.74607674, 61.51804861], [23.74567851, 61.51846051], [23.75112966, 61.5216505], [23.75268543, 61.52260347], [23.76720398, 61.53374858], [23.76851559, 61.53499917], [23.77933888, 61.53340617], [23.78556857, 61.53227254], [23.78867722, 61.53141087], [23.79365742, 61.52994168], [23.79603532, 61.52907537], [23.79810944, 61.52829583], [23.80232569, 61.52769277], [23.81293285, 61.52523632], [23.81717983, 61.52402101], [23.82425889, 61.51759138], [23.8163977, 61.51263074], [23.80871044, 61.50896167], [23.80544259, 61.50749179], [23.80313855, 61.50316636], [23.81044541, 61.50030992], [23.81057962, 61.50002159], [23.81098715, 61.49964173], [23.81139088, 61.49929887], [23.81192598, 61.49904102], [23.81310413, 61.49867141], [23.81416204, 61.49838092], [23.81492104, 61.49822418], [23.81635994, 61.49775548], [23.82012248, 61.49584474], [23.82236862, 61.49338795], [23.82347156, 61.49039414], [23.82135697, 61.49009349], [23.82083943, 61.49000184], [23.8203764, 61.48997303], [23.81912237, 61.48970958], [23.81982119, 61.48701264], [23.81933116, 61.48651307]]]}}, {"type": "Feature", "properties": {"Subarea ID": 55, "Subarea": "Amuri"}, "geometry": {"type": "Polygon", "coordinates": [[[23.76012582, 61.49714446], [23.76044951, 61.49675836], [23.76177164, 61.49671881], [23.7622892, 61.49710904], [23.76351723, 61.49716792], [23.76447914, 61.49541554], [23.76229025, 61.49436051], [23.75772083, 61.49293129], [23.75744062, 61.49033797], [23.75517742, 61.48887978], [23.74945148, 61.48685421], [23.74288117, 61.48650724], [23.73111034, 61.48613731], [23.73054376, 61.4860258], [23.72430831, 61.48432803], [23.7229004, 61.48394463], [23.71427818, 61.48658116], [23.71506914, 61.48752783], [23.71754102, 61.4945976], [23.71800586, 61.49480633], [23.71934059, 61.49544365], [23.72134765, 61.49721308], [23.72157132, 61.49798053], [23.72238258, 61.4986172], [23.72254138, 61.49868754], [23.72255233, 61.49877764], [23.72252972, 61.49911612], [23.72252106, 61.49914334], [23.72244286, 61.49930174], [23.72216615, 61.49951097], [23.72179912, 61.50024312], [23.72180453, 61.50043993], [23.72169435, 61.50054198], [23.72179853, 61.50092046], [23.72165322, 61.50112742], [23.72175416, 61.501276], [23.72458918, 61.50095278], [23.72781703, 61.50099746], [23.72517784, 61.5032019], [23.72137874, 61.50531267], [23.72286319, 61.50689313], [23.73042633, 61.51028208], [23.74253111, 61.51803795], [23.74567851, 61.51846051], [23.74607674, 61.51804861], [23.75178705, 61.51470845], [23.75469121, 61.51290128], [23.75705795, 61.51060245], [23.75563051, 61.50550795], [23.7613193, 61.50198248], [23.76212601, 61.50040143], [23.76222864, 61.49985585], [23.760588, 61.49931268], [23.76057018, 61.49816984], [23.76012582, 61.49714446]]]}}, {"type": "Feature", "properties": {"Subarea ID": 56, "Subarea": "Pispala-Epil\u00e4"}, "geometry": {"type": "Polygon", "coordinates": [[[23.72244286, 61.49930174], [23.72252106, 61.49914334], [23.72252972, 61.49911612], [23.72255233, 61.49877764], [23.72254138, 61.49868754], [23.72238258, 61.4986172], [23.72157132, 61.49798053], [23.72134765, 61.49721308], [23.71934059, 61.49544365], [23.71800586, 61.49480633], [23.71754102, 61.4945976], [23.71506914, 61.48752783], [23.71427818, 61.48658116], [23.69494265, 61.49232806], [23.69402776, 61.49221197], [23.6860226, 61.4867271], [23.68582698, 61.48669447], [23.68106303, 61.48622272], [23.67441691, 61.48598199], [23.65902793, 61.48542331], [23.65846594, 61.48554033], [23.65878383, 61.4859201], [23.66126322, 61.48888177], [23.6597807, 61.49407136], [23.65820706, 61.49688206], [23.66338447, 61.49869129], [23.66783507, 61.49989447], [23.66564703, 61.5011944], [23.65895148, 61.50065551], [23.65735072, 61.50121886], [23.65700054, 61.5020691], [23.65566205, 61.50317172], [23.65313588, 61.50489994], [23.64865104, 61.50463389], [23.64454848, 61.50568812], [23.64367986, 61.51370554], [23.65247739, 61.51435225], [23.6540959, 61.5149956], [23.65038007, 61.51819439], [23.65155985, 61.5180217], [23.65589384, 61.51571021], [23.6559014, 61.51570747], [23.66417632, 61.51412288], [23.67164215, 61.51268255], [23.67705844, 61.51175633], [23.68084879, 61.51153117], [23.68700117, 61.51062249], [23.69027042, 61.51031566], [23.69140632, 61.51061209], [23.69499486, 61.51173429], [23.69873779, 61.51396081], [23.70129576, 61.51575253], [23.70103896, 61.51650185], [23.70278634, 61.51797711], [23.70323593, 61.51821907], [23.70907027, 61.51913951], [23.72120762, 61.51991615], [23.72343475, 61.51991703], [23.72637063, 61.51973988], [23.73606038, 61.51897914], [23.74253111, 61.51803795], [23.73042633, 61.51028208], [23.72286319, 61.50689313], [23.72137874, 61.50531267], [23.72517784, 61.5032019], [23.72781703, 61.50099746], [23.72458918, 61.50095278], [23.72175416, 61.501276], [23.72165322, 61.50112742], [23.72179853, 61.50092046], [23.72169435, 61.50054198], [23.72180453, 61.50043993], [23.72179912, 61.50024312], [23.72216615, 61.49951097], [23.72244286, 61.49930174]]]}}, {"type": "Feature", "properties": {"Subarea ID": 58, "Subarea": "Lounais-Tampere"}, "geometry": {"type": "Polygon", "coordinates": [[[23.65313588, 61.50489994], [23.65566205, 61.50317172], [23.65700054, 61.5020691], [23.65735072, 61.50121886], [23.65895148, 61.50065551], [23.66564703, 61.5011944], [23.66783507, 61.49989447], [23.66338447, 61.49869129], [23.65820706, 61.49688206], [23.6597807, 61.49407136], [23.66126322, 61.48888177], [23.65878383, 61.4859201], [23.65846594, 61.48554033], [23.65509416, 61.48526319], [23.64577268, 61.48424054], [23.63725943, 61.48273754], [23.62763475, 61.48095648], [23.61749569, 61.47939605], [23.61219863, 61.47899519], [23.61030219, 61.47885162], [23.60695087, 61.47852704], [23.60075723, 61.47888706], [23.59778453, 61.48187779], [23.58028327, 61.48713097], [23.57768898, 61.48830845], [23.57660372, 61.48842511], [23.57582974, 61.48838697], [23.57552526, 61.48835681], [23.57501192, 61.48829901], [23.57471849, 61.4882633], [23.57430964, 61.48820797], [23.57407277, 61.48835346], [23.57350735, 61.48868805], [23.57299966, 61.48896569], [23.57214689, 61.48940387], [23.57184898, 61.48954671], [23.57124718, 61.48981532], [23.56789463, 61.49507036], [23.56888383, 61.49825598], [23.57229069, 61.50420642], [23.56886953, 61.50606174], [23.55570007, 61.50471646], [23.54254789, 61.5095986], [23.53841408, 61.51486696], [23.53734164, 61.5163627], [23.53876343, 61.51657901], [23.54753979, 61.5191544], [23.54967981, 61.52034304], [23.55124977, 61.52055732], [23.57328264, 61.52356228], [23.57394641, 61.52365275], [23.57478656, 61.52392594], [23.58280438, 61.52413549], [23.58751662, 61.52344482], [23.60039767, 61.52156569], [23.60129412, 61.52157197], [23.60671137, 61.52313961], [23.60789368, 61.52309433], [23.60795255, 61.52309918], [23.614626, 61.52204798], [23.62387199, 61.52032733], [23.62400544, 61.51919431], [23.6255323, 61.51906401], [23.62792023, 61.51679577], [23.62910984, 61.51697391], [23.63405588, 61.51774952], [23.64367986, 61.51370554], [23.64454848, 61.50568812], [23.64865104, 61.50463389], [23.65313588, 61.50489994]]]}}, {"type": "Feature", "properties": {"Subarea ID": 58, "Subarea": "Luoteis-Tampere"}, "geometry": {"type": "Polygon", "coordinates": [[[23.65155985, 61.5180217], [23.65038007, 61.51819439], [23.6540959, 61.5149956], [23.65247739, 61.51435225], [23.64367986, 61.51370554], [23.63405588, 61.51774952], [23.62910984, 61.51697391], [23.62792023, 61.51679577], [23.6255323, 61.51906401], [23.62400544, 61.51919431], [23.62387199, 61.52032733], [23.614626, 61.52204798], [23.61517791, 61.5226983], [23.61523554, 61.52273825], [23.61685409, 61.52344912], [23.61792216, 61.52379788], [23.6226467, 61.52427824], [23.6250531, 61.5250601], [23.62504027, 61.52574315], [23.62386144, 61.52783503], [23.61978014, 61.53336386], [23.6202143, 61.53353552], [23.62561635, 61.53415906], [23.62905435, 61.5331747], [23.63573934, 61.53572845], [23.63216925, 61.53937688], [23.63125796, 61.54514518], [23.63186269, 61.54976069], [23.63297366, 61.55043735], [23.63776286, 61.55173414], [23.64248951, 61.55275042], [23.64454758, 61.55275334], [23.64890056, 61.54919713], [23.6497621, 61.54643722], [23.65110595, 61.54505601], [23.65127533, 61.54493628], [23.65361806, 61.54406], [23.65982675, 61.54353781], [23.66275422, 61.54368635], [23.67002946, 61.54375498], [23.67141997, 61.54330746], [23.67251022, 61.54101637], [23.67303327, 61.5400356], [23.67499709, 61.53934642], [23.67665665, 61.53904429], [23.6781661, 61.53880591], [23.69055947, 61.53539701], [23.69330296, 61.53591889], [23.69740041, 61.5366982], [23.7113212, 61.53914388], [23.72324452, 61.53968743], [23.72607043, 61.54022292], [23.73364885, 61.540961], [23.75883132, 61.54378729], [23.76301655, 61.53986876], [23.7659315, 61.53713889], [23.76816275, 61.53532493], [23.76851559, 61.53499917], [23.76720398, 61.53374858], [23.75268543, 61.52260347], [23.75112966, 61.5216505], [23.74567851, 61.51846051], [23.74253111, 61.51803795], [23.73606038, 61.51897914], [23.72637063, 61.51973988], [23.72343475, 61.51991703], [23.72120762, 61.51991615], [23.70907027, 61.51913951], [23.70323593, 61.51821907], [23.70278634, 61.51797711], [23.70103896, 61.51650185], [23.70129576, 61.51575253], [23.69873779, 61.51396081], [23.69499486, 61.51173429], [23.69140632, 61.51061209], [23.69027042, 61.51031566], [23.68700117, 61.51062249], [23.68084879, 61.51153117], [23.67705844, 61.51175633], [23.67164215, 61.51268255], [23.66417632, 61.51412288], [23.6559014, 61.51570747], [23.65589384, 61.51571021], [23.65155985, 61.5180217]]]}}, {"type": "Feature", "properties": {"Subarea ID": 59, "Subarea": "Kissanmaa-Takahuhti"}, "geometry": {"type": "Polygon", "coordinates": [[[23.87273059, 61.4837914], [23.87136112, 61.47790368], [23.86263691, 61.47896401], [23.85910183, 61.48033524], [23.85316631, 61.48275367], [23.85301701, 61.4826924], [23.85113438, 61.47986134], [23.84548731, 61.48060549], [23.83880897, 61.48126936], [23.83740437, 61.48115254], [23.83576622, 61.48091579], [23.83350098, 61.48070559], [23.83349966, 61.48071859], [23.81440155, 61.48256654], [23.81369157, 61.4843948], [23.81365363, 61.48495019], [23.81365258, 61.48496553], [23.81760186, 61.48616095], [23.81923679, 61.48642784], [23.81933116, 61.48651307], [23.81982119, 61.48701264], [23.81912237, 61.48970958], [23.8203764, 61.48997303], [23.82083943, 61.49000184], [23.82135697, 61.49009349], [23.82347156, 61.49039414], [23.82236862, 61.49338795], [23.82012248, 61.49584474], [23.81635994, 61.49775548], [23.81492104, 61.49822418], [23.81416204, 61.49838092], [23.81310413, 61.49867141], [23.81192598, 61.49904102], [23.81139088, 61.49929887], [23.81098715, 61.49964173], [23.81057962, 61.50002159], [23.81044541, 61.50030992], [23.80313855, 61.50316636], [23.80544259, 61.50749179], [23.80871044, 61.50896167], [23.8163977, 61.51263074], [23.82425889, 61.51759138], [23.81717983, 61.52402101], [23.83187214, 61.52730191], [23.86114328, 61.52922322], [23.90019933, 61.52894221], [23.90207814, 61.52268659], [23.89810261, 61.51334619], [23.88986043, 61.50407718], [23.88463933, 61.49957925], [23.87887234, 61.49562775], [23.87722005, 61.49433893], [23.87470166, 61.49096444], [23.87537901, 61.48776216], [23.89433739, 61.48477283], [23.8928961, 61.4828963], [23.88447927, 61.48332083], [23.87272928, 61.48380439], [23.87273059, 61.4837914]]]}}, {"type": "Feature", "properties": {"Subarea ID": 60, "Subarea": "Koillis-Tampere"}, "geometry": {"type": "Polygon", "coordinates": [[[23.93259778, 61.47852375], [23.93288401, 61.4781875], [23.93316937, 61.47781849], [23.93338006, 61.47754603], [23.9334861, 61.4774089], [23.93314737, 61.47735809], [23.93307516, 61.47734726], [23.93302453, 61.47725889], [23.93276208, 61.47680075], [23.93298998, 61.47612243], [23.93290327, 61.47539985], [23.93280764, 61.47460285], [23.93275085, 61.47412955], [23.93190247, 61.47174573], [23.92796298, 61.4688701], [23.92679951, 61.46899883], [23.92218355, 61.46898531], [23.89019564, 61.47412254], [23.89043619, 61.47658846], [23.89277425, 61.47673167], [23.89290887, 61.47808633], [23.8928961, 61.4828963], [23.89433739, 61.48477283], [23.87537901, 61.48776216], [23.87470166, 61.49096444], [23.87722005, 61.49433893], [23.87887234, 61.49562775], [23.88463933, 61.49957925], [23.88986043, 61.50407718], [23.89810261, 61.51334619], [23.90207814, 61.52268659], [23.90019933, 61.52894221], [23.926497, 61.52997666], [23.9390083, 61.53231165], [23.95296502, 61.53272408], [23.96424572, 61.52927581], [23.97245135, 61.52477088], [23.97541111, 61.52314551], [23.97468668, 61.52209231], [23.9745329, 61.52177066], [23.97381453, 61.51827864], [23.97298959, 61.51630237], [23.97368195, 61.51277935], [23.97413525, 61.51153937], [23.9741812, 61.51144032], [23.97437617, 61.51109032], [23.97421143, 61.51084352], [23.97387437, 61.51033855], [23.96853702, 61.50612452], [23.96038627, 61.50322836], [23.95978984, 61.5030164], [23.95648788, 61.49729208], [23.94638182, 61.49688168], [23.94396576, 61.49676104], [23.9364614, 61.49696146], [23.9360444, 61.49697258], [23.9359752, 61.4967874], [23.93578151, 61.49605398], [23.93556072, 61.49521785], [23.9355303, 61.49510267], [23.93466494, 61.4929589], [23.93605866, 61.4887356], [23.93641863, 61.48834208], [23.93660211, 61.48814148], [23.9363156, 61.48760945], [23.93606424, 61.4872924], [23.93486951, 61.48663976], [23.93566045, 61.48624934], [23.93569117, 61.48616528], [23.935764, 61.48596594], [23.93584378, 61.48574758], [23.936385, 61.4854928], [23.93637855, 61.48477018], [23.93538274, 61.48373252], [23.93518217, 61.48368438], [23.93498046, 61.48363597], [23.93438419, 61.48349285], [23.93378617, 61.48325926], [23.93273808, 61.48284987], [23.93256183, 61.48271747], [23.93211417, 61.48238121], [23.93228539, 61.48190395], [23.9337128, 61.48062002], [23.93412539, 61.48024888], [23.93444614, 61.47996034], [23.93368208, 61.47974727], [23.93196408, 61.47926815], [23.93259778, 61.47852375]]]}}, {"type": "Feature", "properties": {"Subarea ID": 62, "Subarea": "Kaukaj\u00e4rvi"}, "geometry": {"type": "Polygon", "coordinates": [[[23.8928961, 61.4828963], [23.88447927, 61.48332083], [23.87272928, 61.48380439], [23.87273059, 61.4837914], [23.87136112, 61.47790368], [23.86263691, 61.47896401], [23.85910183, 61.48033524], [23.85316631, 61.48275367], [23.85301701, 61.4826924], [23.85113438, 61.47986134], [23.84548731, 61.48060549], [23.83880897, 61.48126936], [23.83740437, 61.48115254], [23.83576622, 61.48091579], [23.83350098, 61.48070559], [23.83349966, 61.48071859], [23.83292553, 61.4791396], [23.83247206, 61.4783205], [23.83330031, 61.47730113], [23.83635562, 61.47450381], [23.84023348, 61.47036259], [23.84147739, 61.46371112], [23.84219794, 61.46352439], [23.84220631, 61.46352189], [23.84262107, 61.4633346], [23.84349794, 61.46284721], [23.84370949, 61.46269295], [23.84422639, 61.46223912], [23.84425251, 61.46218958], [23.84522282, 61.46102556], [23.84894811, 61.45905232], [23.85191879, 61.45929302], [23.85887972, 61.46169927], [23.86205456, 61.46257614], [23.86473168, 61.46315258], [23.86808613, 61.46315298], [23.87194842, 61.46204766], [23.87556353, 61.46124211], [23.88087619, 61.45952456], [23.88661439, 61.45522672], [23.887084, 61.45325109], [23.88942285, 61.45321856], [23.89078208, 61.45475985], [23.89623733, 61.45394734], [23.89816057, 61.45500202], [23.90170939, 61.45472174], [23.9002072, 61.44942411], [23.8981265, 61.44940438], [23.89763543, 61.44552505], [23.90456034, 61.44235913], [23.91055689, 61.44592344], [23.91515099, 61.45067555], [23.92167156, 61.4609478], [23.92434425, 61.46641585], [23.92679951, 61.46899883], [23.92218355, 61.46898531], [23.89019564, 61.47412254], [23.89043619, 61.47658846], [23.89277425, 61.47673167], [23.89290887, 61.47808633], [23.8928961, 61.4828963]]]}}, {"type": "Feature", "properties": {"Subarea ID": 63, "Subarea": "Hervanta"}, "geometry": {"type": "Polygon", "coordinates": [[[23.84522282, 61.46102556], [23.84425251, 61.46218958], [23.84422639, 61.46223912], [23.84370949, 61.46269295], [23.84349794, 61.46284721], [23.84262107, 61.4633346], [23.84220631, 61.46352189], [23.84219794, 61.46352439], [23.84147739, 61.46371112], [23.84148107, 61.4636748], [23.84148291, 61.46365663], [23.83696728, 61.46176797], [23.8222694, 61.45225247], [23.81201644, 61.44855518], [23.81229975, 61.44757376], [23.82712467, 61.44110026], [23.83334746, 61.4384251], [23.83771652, 61.43603297], [23.85312266, 61.4326415], [23.86321007, 61.43130399], [23.86850417, 61.4290077], [23.87095407, 61.42789207], [23.86898081, 61.4275081], [23.87352921, 61.42660998], [23.87603269, 61.42794365], [23.88034108, 61.4281802], [23.88953093, 61.4275583], [23.88961333, 61.42756018], [23.8895338, 61.42764351], [23.89930441, 61.44037034], [23.90456034, 61.44235913], [23.89763543, 61.44552505], [23.8981265, 61.44940438], [23.9002072, 61.44942411], [23.90170939, 61.45472174], [23.89816057, 61.45500202], [23.89623733, 61.45394734], [23.89078208, 61.45475985], [23.88942285, 61.45321856], [23.887084, 61.45325109], [23.88661439, 61.45522672], [23.88087619, 61.45952456], [23.87556353, 61.46124211], [23.87194842, 61.46204766], [23.86808613, 61.46315298], [23.86473168, 61.46315258], [23.86205456, 61.46257614], [23.85887972, 61.46169927], [23.85191879, 61.45929302], [23.84894811, 61.45905232], [23.84522282, 61.46102556]]]}}, {"type": "Feature", "properties": {"Subarea ID": 64, "Subarea": "Nekala"}, "geometry": {"type": "Polygon", "coordinates": [[[23.81140322, 61.48556949], [23.80190419, 61.48680707], [23.79925737, 61.4874842], [23.79813427, 61.48770561], [23.79714644, 61.48784682], [23.79672687, 61.4878851], [23.79060345, 61.48586552], [23.79020506, 61.48574232], [23.79007443, 61.48572192], [23.78967236, 61.48558926], [23.78966721, 61.48558878], [23.78896125, 61.48530569], [23.78875358, 61.4851322], [23.7880578, 61.48491263], [23.78686269, 61.48464879], [23.78673913, 61.48464883], [23.78635327, 61.4845298], [23.78624747, 61.48446158], [23.78587723, 61.48438799], [23.78502913, 61.48421264], [23.784482, 61.484063], [23.78388426, 61.48407516], [23.78378092, 61.48405083], [23.78327686, 61.48402298], [23.78276338, 61.48398441], [23.78187854, 61.48391161], [23.77736169, 61.48398568], [23.77698053, 61.48340494], [23.77563389, 61.48106382], [23.77271807, 61.48221053], [23.77210722, 61.480087], [23.77210726, 61.48008666], [23.77663533, 61.476557], [23.78051393, 61.47535685], [23.78627906, 61.47468145], [23.79502896, 61.47454256], [23.80131506, 61.47508441], [23.80921478, 61.47582206], [23.81117771, 61.47569366], [23.81741799, 61.47519111], [23.82057899, 61.47509973], [23.82417237, 61.47519599], [23.83011437, 61.47466717], [23.83628607, 61.47449612], [23.83635562, 61.47450381], [23.83330031, 61.47730113], [23.83247206, 61.4783205], [23.83292553, 61.4791396], [23.83349966, 61.48071859], [23.81440155, 61.48256654], [23.81369157, 61.4843948], [23.81365363, 61.48495019], [23.81140322, 61.48556949]]]}}, {"type": "Feature", "properties": {"Subarea ID": 65, "Subarea": "Hatanp\u00e4\u00e4-Rantaperki\u00f6"}, "geometry": {"type": "Polygon", "coordinates": [[[23.7437452, 61.45599645], [23.74760667, 61.45753835], [23.75239197, 61.46052297], [23.75849247, 61.46203728], [23.75688471, 61.46380445], [23.76489694, 61.47143329], [23.76572439, 61.47271764], [23.76776593, 61.47440121], [23.77210726, 61.48008666], [23.77210722, 61.480087], [23.77271807, 61.48221053], [23.77351538, 61.48454955], [23.77351534, 61.48454989], [23.77351376, 61.48456517], [23.76934342, 61.48610163], [23.76065661, 61.48599576], [23.75517742, 61.48887978], [23.74945148, 61.48685421], [23.74288117, 61.48650724], [23.73111034, 61.48613731], [23.73054376, 61.4860258], [23.72430831, 61.48432803], [23.7229004, 61.48394463], [23.72325531, 61.48350084], [23.72226494, 61.4799762], [23.72212904, 61.47949248], [23.71988195, 61.47411559], [23.71972266, 61.47388375], [23.71999186, 61.47266859], [23.72014847, 61.47196159], [23.72099615, 61.47155727], [23.7225782, 61.47106631], [23.72410163, 61.46944085], [23.72550878, 61.46697112], [23.72356067, 61.46311912], [23.72363444, 61.45973812], [23.72724468, 61.45544802], [23.73796373, 61.44831049], [23.7437452, 61.45599645]]]}}, {"type": "Feature", "properties": {"Subarea ID": 66, "Subarea": "Koivistonkyl\u00e4"}, "geometry": {"type": "Polygon", "coordinates": [[[23.78627906, 61.47468145], [23.78051393, 61.47535685], [23.77663533, 61.476557], [23.77210726, 61.48008666], [23.76776593, 61.47440121], [23.76572439, 61.47271764], [23.76489694, 61.47143329], [23.75688471, 61.46380445], [23.75849247, 61.46203728], [23.76670499, 61.46666963], [23.76829775, 61.46772077], [23.76972566, 61.46823348], [23.77203702, 61.46794992], [23.77944635, 61.46181913], [23.79698345, 61.46058528], [23.79915854, 61.45801232], [23.79306038, 61.45478909], [23.78988992, 61.452122], [23.78831327, 61.44566565], [23.79869897, 61.44419658], [23.80506279, 61.44877639], [23.81229975, 61.44757376], [23.81201644, 61.44855518], [23.8222694, 61.45225247], [23.83696728, 61.46176797], [23.84148291, 61.46365663], [23.84148107, 61.4636748], [23.84147739, 61.46371112], [23.84023348, 61.47036259], [23.83635562, 61.47450381], [23.83628607, 61.47449612], [23.83011437, 61.47466717], [23.82417237, 61.47519599], [23.82057899, 61.47509973], [23.81741799, 61.47519111], [23.81117771, 61.47569366], [23.80921478, 61.47582206], [23.80131506, 61.47508441], [23.79502896, 61.47454256], [23.78627906, 61.47468145]]]}}, {"type": "Feature", "properties": {"Subarea ID": 67, "Subarea": "Peltolammi"}, "geometry": {"type": "Polygon", "coordinates": [[[23.75410871, 61.43213439], [23.7462054, 61.43266445], [23.74337301, 61.43127878], [23.73845649, 61.43077047], [23.7338682, 61.42901721], [23.73210682, 61.42908182], [23.72135583, 61.43074714], [23.710215, 61.43733708], [23.70771347, 61.44032666], [23.70820236, 61.4434312], [23.72369607, 61.43820615], [23.72821184, 61.43848148], [23.72922881, 61.43884707], [23.73006645, 61.43920875], [23.73072456, 61.43940462], [23.7323228, 61.44557795], [23.73253202, 61.44563209], [23.73518098, 61.44631756], [23.73705103, 61.44684257], [23.73796373, 61.44831049], [23.7437452, 61.45599645], [23.74760667, 61.45753835], [23.75239197, 61.46052297], [23.75849247, 61.46203728], [23.76670499, 61.46666963], [23.76829775, 61.46772077], [23.76972566, 61.46823348], [23.77203702, 61.46794992], [23.77944635, 61.46181913], [23.79698345, 61.46058528], [23.79915854, 61.45801232], [23.79306038, 61.45478909], [23.78988992, 61.452122], [23.78831327, 61.44566565], [23.7942547, 61.43689258], [23.79611024, 61.43391853], [23.77540658, 61.43158736], [23.75410871, 61.43213439]]]}}, {"type": "Feature", "properties": {"Subarea ID": 68, "Subarea": "Vuores"}, "geometry": {"type": "Polygon", "coordinates": [[[23.81229975, 61.44757376], [23.80506279, 61.44877639], [23.79869897, 61.44419658], [23.78831327, 61.44566565], [23.7942547, 61.43689258], [23.79611024, 61.43391853], [23.79981165, 61.43092152], [23.8079923, 61.42976939], [23.81177644, 61.42707619], [23.81158583, 61.42503177], [23.8205643, 61.42276121], [23.82248759, 61.42329162], [23.81926019, 61.42487512], [23.82267211, 61.42582419], [23.82789746, 61.42559838], [23.83203394, 61.4265641], [23.83610155, 61.42463029], [23.84002017, 61.42535887], [23.83919424, 61.42754202], [23.84454048, 61.42731837], [23.84678137, 61.42881295], [23.8514716, 61.42859299], [23.85899797, 61.4267256], [23.86796517, 61.42658458], [23.86166785, 61.42423718], [23.85849628, 61.42329465], [23.86096385, 61.42161294], [23.85997209, 61.41944571], [23.85687365, 61.42018553], [23.84486003, 61.42176202], [23.84086439, 61.42386442], [23.8380021, 61.42258805], [23.82404718, 61.41669324], [23.83084683, 61.41464093], [23.84708863, 61.41526468], [23.85811398, 61.41627321], [23.86082403, 61.41819035], [23.86780579, 61.41852515], [23.87302654, 61.41470431], [23.8774217, 61.41550073], [23.88628338, 61.41153113], [23.8862639, 61.40747472], [23.89159542, 61.40895072], [23.89414297, 61.412754], [23.88131652, 61.41767645], [23.88368054, 61.42017799], [23.88016958, 61.42431496], [23.88186982, 61.42667212], [23.88961333, 61.42756018], [23.88953093, 61.4275583], [23.88034108, 61.4281802], [23.87603269, 61.42794365], [23.87352921, 61.42660998], [23.86898081, 61.4275081], [23.87095407, 61.42789207], [23.86850417, 61.4290077], [23.86321007, 61.43130399], [23.85312266, 61.4326415], [23.83771652, 61.43603297], [23.83334746, 61.4384251], [23.82712467, 61.44110026], [23.81229975, 61.44757376]]]}}]}